NORAD_CAT_ID,OBJECT_NAME,OBJECT_TYPE,EPOCH,MEAN_MOTION,ECCENTRICITY,INCLINATION,RA_OF_ASC_NODE,ARG_OF_PERICENTER,MEAN_ANOMALY,BSTAR,MEAN_MOTION_DOT,MEAN_MOTION_DDOT,TLE_LINE0,TLE_LINE1,TLE_LINE2,SEMIMAJOR_AXIS,PERIOD,APOGEE,PERIGEE,DECAYED
51892.0,STARLINK-3587,PAYLOAD,2022-09-07 14:00:01,15.08814666,0.0001548,53.2185,341.2622,57.8519,268.9878,0.0010029,0.00015698,0.0,0 STARLINK-3587,1 51892U 22022AS  22250.58334491  .00015698  00000-0  10029-2 0  9994,2 51892  53.2185 341.2622 0001548  57.8519 268.9878 15.08814666  1301,6917.958000000001,95.439,540.894,538.752,0.0
51892.0,STARLINK-3587,PAYLOAD,2022-09-07 22:00:00,15.08846779,0.000146,53.2186,339.765,57.4389,280.967,-0.00162,-0.00025982,0.0,0 STARLINK-3587,1 51892U 22022AS  22250.91667824 -.00025982  00000-0 -16200-2 0  9996,2 51892  53.2186 339.7650 0001460  57.4389 280.9670 15.08846779  1303,6917.86,95.437,540.735,538.715,0.0
51892.0,STARLINK-3587,PAYLOAD,2022-09-08 14:00:01,15.088429,0.0001595,53.219,336.7735,56.25899999999999,305.347,0.0012137,0.00019082,0.0,0 STARLINK-3587,1 51892U 22022AS  22251.58334491  .00019082  00000-0  12137-2 0  9998,2 51892  53.2190 336.7735 0001595  56.2590 305.3470 15.08842900  1301,6917.871999999999,95.437,540.84,538.633,0.0
51892.0,STARLINK-3587,PAYLOAD,2022-09-08 22:00:00,15.08886668,0.0001525,53.2189,335.2761,57.399,315.8161,-0.0024977,-0.0003987,0.0,0 STARLINK-3587,1 51892U 22022AS  22251.91667824 -.00039870  00000-0 -24977-2 0  9998,2 51892  53.2189 335.2761 0001525  57.3990 315.8161 15.08886668  1303,6917.738,95.435,540.658,538.548,0.0
51892.0,STARLINK-3587,PAYLOAD,2022-09-09 00:00:02,15.08839027,0.000148,53.218,334.8933,57.5361,48.6649,0.0022394,0.00035531,0.0,0 STARLINK-3587,1 51892U 22022AS  22252.00002315  .00035531  00000-0  22394-2 0  9996,2 51892  53.2180 334.8933 0001480  57.5361  48.6649 15.08839027 30350,6917.8830000000025,95.438,540.7719999999998,538.725,0.0
51892.0,STARLINK-3587,PAYLOAD,2022-09-09 06:00:00,15.08822832,0.0001481,53.2184,333.774,68.0385,316.8001,0.0011591,0.00018199,0.0,0 STARLINK-3587,1 51892U 22022AS  22252.25001157  .00018199  00000-0  11591-2 0  9994,2 51892  53.2184 333.7740 0001481  68.0385 316.8001 15.08822832 30394,6917.933000000001,95.439,540.822,538.773,0.0
51892.0,STARLINK-3587,PAYLOAD,2022-09-09 14:00:01,15.08862236,0.0001575999999999,53.218,332.2745,56.7416,339.6734,0.00041615,6.345e-05,0.0,0 STARLINK-3587,1 51892U 22022AS  22252.58334491  .00006345  00000-0  41615-3 0  9991,2 51892  53.2180 332.2745 0001576  56.7416 339.6734 15.08862236  1300,6917.812,95.436,540.768,538.587,0.0
51892.0,STARLINK-3587,PAYLOAD,2022-09-09 22:00:00,15.08836479,0.0001499,53.2175,330.7711,54.5214,353.5333,-4.5145e-05,-1.006e-05,0.0,0 STARLINK-3587,1 51892U 22022AS  22252.91667824 -.00001006  00000-0 -45145-4 0  9991,2 51892  53.2175 330.7711 0001499  54.5214 353.5333 15.08836479  1306,6917.891,95.438,540.793,538.719,0.0
51892.0,STARLINK-3587,PAYLOAD,2022-09-10 06:00:02,15.08862868,0.0001456,53.219,329.2903,66.7543,352.915,0.00041473,6.323e-05,0.0,0 STARLINK-3587,1 51892U 22022AS  22253.25002315  .00006323  00000-0  41473-3 0  9991,2 51892  53.2190 329.2903 0001456  66.7543 352.9150 15.08862868 30541,6917.81,95.436,540.683,538.668,0.0
51892.0,STARLINK-3587,PAYLOAD,2022-09-10 14:00:01,15.08834599,0.0001518,53.2188,327.796,58.2924,12.9394,0.00043069,6.572e-05,0.0,0 STARLINK-3587,1 51892U 22022AS  22253.58334491  .00006572  00000-0  43069-3 0  9999,2 51892  53.2188 327.7960 0001518  58.2924  12.9394 15.08834599  1307,6917.897,95.438,540.812,538.712,0.0
51892.0,STARLINK-3587,PAYLOAD,2022-09-10 22:00:00,15.08853454,0.0001435,53.2186,326.2984,62.06,20.7626,-0.0036005,-0.00057156,0.0,0 STARLINK-3587,1 51892U 22022AS  22253.91667824 -.00057156  00000-0 -36005-2 0  9992,2 51892  53.2186 326.2984 0001435  62.0600  20.7626 15.08853454 30642,6917.839,95.437,540.697,538.712,0.0
51892.0,STARLINK-3587,PAYLOAD,2022-09-11 06:00:00,15.08838387,0.0001467,53.2185,324.8019,67.6384,26.7828,0.00061961,9.586e-05,0.0,0 STARLINK-3587,1 51892U 22022AS  22254.25001157  .00009586  00000-0  61961-3 0  9993,2 51892  53.2185 324.8019 0001467  67.6384  26.7828 15.08838387 30692,6917.885,95.438,540.765,538.735,0.0
51892.0,STARLINK-3587,PAYLOAD,2022-09-11 14:00:01,15.08823411,0.0001551,53.2182,323.3072,59.1178,46.9015,0.0023919,0.00037967,0.0,0 STARLINK-3587,1 51892U 22022AS  22254.58334491  .00037967  00000-0  23919-2 0  9993,2 51892  53.2182 323.3072 0001551  59.1178  46.9015 15.08823411  1303,6917.931,95.439,540.869,538.7230000000002,0.0
51892.0,STARLINK-3587,PAYLOAD,2022-09-11 22:00:00,15.08860977,0.0001399,53.2178,321.8095,62.9012,54.7109,-0.0031639,-0.00050318,0.0,0 STARLINK-3587,1 51892U 22022AS  22254.91667824 -.00050318  00000-0 -31639-2 0  9994,2 51892  53.2178 321.8095 0001399  62.9012  54.7109 15.08860977  1304,6917.816,95.436,540.649,538.7130000000002,0.0
51892.0,STARLINK-3587,PAYLOAD,2022-09-12 06:00:00,15.08843029,0.0001367,53.2177,320.313,66.0435,63.1651,7.6143e-05,9.24e-06,0.0,0 STARLINK-3587,1 51892U 22022AS  22255.25001157  .00000924  00000-0  76143-4 0  9990,2 51892  53.2177 320.3130 0001367  66.0435  63.1651 15.08843029 30842,6917.871,95.437,540.682,538.79,0.0
51892.0,STARLINK-3587,PAYLOAD,2022-09-12 14:00:01,15.08830813,0.0001512,53.2174,318.8182,57.0807,83.73,0.0013318,0.00020966,0.0,0 STARLINK-3587,1 51892U 22022AS  22255.58334491  .00020966  00000-0  13318-2 0  9997,2 51892  53.2174 318.8182 0001512  57.0807  83.7300 15.08830813  1308,6917.908,95.438,540.819,538.727,0.0
51892.0,STARLINK-3587,PAYLOAD,2022-09-12 22:00:00,15.08837475,0.0001453,53.2171,317.3202,63.3249,89.0914,-0.00042746,-7.084e-05,0.0,0 STARLINK-3587,1 51892U 22022AS  22255.91667824 -.00007084  00000-0 -42746-3 0  9999,2 51892  53.2171 317.3202 0001453  63.3249  89.0914 15.08837475  1307,6917.888000000001,95.438,540.758,538.748,0.0
51892.0,STARLINK-3587,PAYLOAD,2022-09-13 14:00:01,15.0874079,0.0001496999999999,53.2172,314.3165,52.9788,122.6485,0.0080568,0.00129957,0.0,0 STARLINK-3587,1 51892U 22022AS  22256.58334491  .00129957  00000-0  80568-2 0  9999,2 51892  53.2172 314.3165 0001497  52.9788 122.6485 15.08740790  1303,6918.184,95.444,541.0840000000002,539.013,0.0
51892.0,STARLINK-3587,PAYLOAD,2022-09-13 16:00:00,15.08766759,0.0001471,53.2169,313.941,51.7217,216.7791,0.006807,0.00109514,0.0,0 STARLINK-3587,1 51892U 22022AS  22256.66667824  .00109514  00000-0  68070-2 0  9998,2 51892  53.2169 313.9410 0001471  51.7217 216.7791 15.08766759 31056,6918.104,95.442,540.987,538.952,0.0
51892.0,STARLINK-3587,PAYLOAD,2022-09-13 22:00:00,15.08825496,0.0001395999999999,53.2169,312.8307,60.408,126.772,0.00065058,0.00010077,0.0,0 STARLINK-3587,1 51892U 22022AS  22256.91667824  .00010077  00000-0  65058-3 0  9995,2 51892  53.2169 312.8307 0001396  60.4080 126.7720 15.08825496  1301,6917.925,95.438,540.755,538.8240000000002,0.0
51892.0,STARLINK-3587,PAYLOAD,2022-09-14 06:00:00,15.08851726,0.0001484,53.2169,311.3347,63.1404,135.6173,-0.00043621,-7.226e-05,0.0,0 STARLINK-3587,1 51892U 22022AS  22257.25001157 -.00007226  00000-0 -43621-3 0  9990,2 51892  53.2169 311.3347 0001484  63.1404 135.6173 15.08851726 31148,6917.845,95.437,540.736,538.683,0.0
51892.0,STARLINK-3587,PAYLOAD,2022-09-14 14:00:01,15.08832594,0.0001543,53.2168,309.8395,52.9589,157.406,0.00074574,0.00011598,0.0,0 STARLINK-3587,1 51892U 22022AS  22257.58334491  .00011598  00000-0  74574-3 0  9992,2 51892  53.2168 309.8395 0001543  52.9589 157.4060 15.08832594  1302,6917.903,95.438,540.835,538.701,0.0
51892.0,STARLINK-3587,PAYLOAD,2022-09-14 22:00:00,15.08820878,0.0001368,53.2169,308.3413,56.25,165.713,0.001103,0.00017301,0.0,0 STARLINK-3587,1 51892U 22022AS  22257.91667824  .00017301  00000-0  11030-2 0  9993,2 51892  53.2169 308.3413 0001368  56.2500 165.7130 15.08820878  1305,6917.939,95.439,540.75,538.857,0.0
51892.0,STARLINK-3587,PAYLOAD,2022-09-15 14:00:01,15.08836781,0.0001618,53.2171,305.3501,51.6032,193.5503,0.0018831,0.00029806,0.0,0 STARLINK-3587,1 51892U 22022AS  22258.58334491  .00029806  00000-0  18831-2 0  9997,2 51892  53.2171 305.3501 0001618  51.6032 193.5503 15.08836781  1303,6917.89,95.438,540.875,538.636,0.0
51892.0,STARLINK-3587,PAYLOAD,2022-09-15 16:00:00,15.08863587,0.0001598,53.2169,304.9756,51.0392,287.0078,-0.0016015,-0.00025702,0.0,0 STARLINK-3587,1 51892U 22022AS  22258.66667824 -.00025702  00000-0 -16015-2 0  9990,2 51892  53.2169 304.9756 0001598  51.0392 287.0078 15.08863587  1307,6917.808000000001,95.436,540.779,538.568,0.0
51892.0,STARLINK-3587,PAYLOAD,2022-09-15 22:27:23,15.08851884,0.0001564,53.2183,303.767,61.0095,299.1054,0.00012276,1.667e-05,0.0,0 STARLINK-3587,1 51892U 22022AS  22258.93568784  .00001667  00000-0  12276-3 0  9993,2 51892  53.2183 303.7670 0001564  61.0095 299.1054 15.08851884 31408,6917.844,95.437,540.7909999999998,538.627,0.0
51892.0,STARLINK-3587,PAYLOAD,2022-09-16 09:35:06,15.08843026,0.0001515,53.2181,301.6856,58.9477,301.1664,9.4833e-05,1.222e-05,0.0,0 STARLINK-3587,1 51892U 22022AS  22259.39937521  .00001222  00000-0  94833-4 0  9990,2 51892  53.2181 301.6856 0001515  58.9477 301.1664 15.08843026 31471,6917.871,95.437,540.784,538.688,0.0
51892.0,STARLINK-3587,PAYLOAD,2022-09-16 23:53:34,15.0883242,0.0001515,53.2185,299.0103,71.7435,288.3722,6.415699999999999e-07,-2.78e-06,0.0,0 STARLINK-3587,1 51892U 22022AS  22259.99554328 -.00000278  00000-0  64157-6 0  9995,2 51892  53.2185 299.0103 0001515  71.7435 288.3722 15.08832420 31564,6917.904,95.438,540.817,538.72,0.0
51892.0,STARLINK-3587,PAYLOAD,2022-09-17 09:25:53,15.088351,0.000148,53.2181,297.2254,59.2974,300.8164,2.7056e-05,1.43e-06,0.0,0 STARLINK-3587,1 51892U 22022AS  22260.39298292  .00000143  00000-0  27056-4 0  9991,2 51892  53.2181 297.2254 0001480  59.2974 300.8164 15.08835100 31622,6917.895,95.438,540.784,538.737,0.0
